COSMOS 2598 (RODNIK-S *)
1 66648U 25273B   25344.21249252  .00000006  00000+0 -28655-4 0  9990
2 66648  82.5026 288.0217 0007267 257.2935 102.7333 12.42861567  1820
COSMOS 2599 (RODNIK-S *)
1 66649U 25273C   25344.22135863  .00000048  00000+0  27800-3 0  9999
2 66649  82.5026 288.0284 0008146 305.7370  54.2951 12.41671887  1824
BEE-1000                
1 66650U 25274A   25343.73378375  .00002875  00000+0  29143-3 0  9996
2 66650  97.7385 270.9766 0010439 263.1107  96.8924 14.91644570  1952
2025-274B               
1 66651U 25274B   25343.73311201  .00006145  00000+0  61450-3 0  9993
2 66651  97.7381 270.9768 0010740 262.2658  97.7341 14.91760107  1955
2025-274C               
1 66652U 25274C   25343.53067731  .00003732  00000+0  37452-3 0  9992
2 66652  97.7387 270.7817 0010407 269.9894  90.0132 14.91874076  1923
2025-274D               
1 66653U 25274D   25343.53061704  .00003888  00000+0  38978-3 0  9993
2 66653  97.7386 270.7814 0011280 265.8961  94.0969 14.91878474  1928
JACK E                  
1 66654U 25274E   25343.39506182  .00004414  00000+0  43977-3 0  9993
2 66654  97.7388 270.6521 0011864 268.0515  91.9345 14.92052620  1903
2025-274F               
1 66655U 25274F   25342.78970739  .00015539  00000+0  15161-2 0  9992
2 66655  97.7329 270.0601 0005490 323.8556  36.2292 14.92504145  1812
2025-274G               
1 66656U 25274G   25343.72878200  .00004831  00000+0  47846-3 0  9997
2 66656  97.7385 270.9831 0012484 268.5580  91.4209 14.92244035  1957
SPIRONE                 
1 66657U 25274H   25343.86131480  .00004307  00000+0  42537-3 0  9995
2 66657  97.7383 271.1165 0010926 286.8591  73.1430 14.92423884  1979
2025-274J               
1 66658U 25274J   25344.06088918  .00004153  00000+0  40856-3 0  9997
2 66658  97.7384 271.3164 0011512 289.1224  70.8749 14.92597463  2000
JACK K                  
1 66659U 25274K   25343.85813216  .00003880  00000+0  38031-3 0  9999
2 66659  97.7386 271.1212 0012255 291.2442  68.7468 14.92781101  1979
